{"type":"FeatureCollection","features":[{"type":"Feature","properties":{"name":"Canada","iso_a3":"CAN"},"geometry":{"type":"Polygon","coordinates":[[[-130,48],[-125,55],[-130,60],[-140,60],[-145,65],[-165,65],[-168,55],[-165,52],[-160,55],[-147,60],[-138,56],[-130,55],[-123,48],[-120,34],[-117,32],[-105,25],[-97,25],[-85,25],[-82,24],[-80,25],[-75,35],[-67,44],[-65,47],[-58,50],[-55,52],[-60,55],[-65,60],[-75,62],[-80,65],[-85,70],[-100,72],[-120,72],[-140,70],[-130,48]]]}},{"type":"Feature","properties":{"name":"United States","iso_a3":"USA"},"geometry":{"type":"Polygon","coordinates":[[[-125,48],[-123,48],[-120,34],[-117,32],[-105,25],[-97,25],[-97,32],[-100,36],[-90,30],[-82,24],[-80,25],[-75,35],[-67,44],[-70,45],[-75,45],[-80,42],[-82,42],[-88,47],[-95,48],[-125,48]]]}},{"type":"Feature","properties":{"name":"Mexico","iso_a3":"MEX"},"geometry":{"type":"Polygon","coordinates":[[[-117,32],[-105,25],[-97,25],[-97,20],[-92,15],[-87,14],[-90,21],[-100,20],[-105,20],[-110,23],[-115,30],[-117,32]]]}},{"type":"Feature","properties":{"name":"Brazil","iso_a3":"BRA"},"geometry":{"type":"Polygon","coordinates":[[[-73,4],[-60,5],[-52,2],[-50,0],[-44,-2],[-35,-5],[-35,-10],[-37,-12],[-39,-15],[-41,-20],[-43,-23],[-48,-28],[-54,-34],[-58,-35],[-60,-30],[-58,-20],[-60,-15],[-65,-10],[-70,-5],[-75,0],[-73,3],[-73,4]]]}},{"type":"Feature","properties":{"name":"Argentina","iso_a3":"ARG"},"geometry":{"type":"Polygon","coordinates":[[[-58,-35],[-54,-34],[-48,-28],[-53,-22],[-55,-22],[-58,-20],[-60,-15],[-65,-10],[-70,-18],[-70,-25],[-70,-35],[-70,-42],[-68,-47],[-70,-55],[-65,-55],[-60,-52],[-58,-48],[-62,-42],[-65,-39],[-58,-35]]]}},{"type":"Feature","properties":{"name":"Spain","iso_a3":"ESP"},"geometry":{"type":"Polygon","coordinates":[[[-10,36],[0,36],[3,37],[3,43],[0,43],[-1,44],[-5,44],[-9,43],[-10,40],[-10,36]]]}},{"type":"Feature","properties":{"name":"France","iso_a3":"FRA"},"geometry":{"type":"Polygon","coordinates":[[[-5,44],[0,43],[3,43],[7,44],[8,46],[6,49],[2,51],[-2,48],[-5,48],[-5,44]]]}},{"type":"Feature","properties":{"name":"Germany","iso_a3":"DEU"},"geometry":{"type":"Polygon","coordinates":[[[6,47],[8,46],[15,47],[15,51],[13,54],[10,55],[8,54],[6,51],[6,47]]]}},{"type":"Feature","properties":{"name":"United Kingdom","iso_a3":"GBR"},"geometry":{"type":"Polygon","coordinates":[[[-6,50],[2,51],[2,53],[-1,55],[-5,58],[-7,57],[-6,54],[-3,54],[-5,52],[-6,50]]]}},{"type":"Feature","properties":{"name":"Italy","iso_a3":"ITA"},"geometry":{"type":"Polygon","coordinates":[[[7,38],[12,37],[16,38],[18,40],[16,41],[13,42],[12,44],[13,46],[10,46],[7,44],[7,42],[7,38]]]}},{"type":"Feature","properties":{"name":"Scandinavia","iso_a3":"SCA"},"geometry":{"type":"Polygon","coordinates":[[[5,58],[10,55],[13,56],[15,60],[18,63],[20,65],[22,68],[28,70],[30,70],[25,65],[20,60],[15,58],[10,57],[5,58]]]}},{"type":"Feature","properties":{"name":"Russia","iso_a3":"RUS"},"geometry":{"type":"Polygon","coordinates":[[[28,45],[30,50],[28,55],[30,60],[40,68],[60,70],[100,72],[140,72],[170,72],[180,65],[180,55],[160,55],[150,50],[140,50],[130,42],[120,52],[90,50],[80,50],[70,50],[60,42],[55,42],[48,43],[40,43],[35,45],[28,45]]]}},{"type":"Feature","properties":{"name":"North Africa","iso_a3":"NAF"},"geometry":{"type":"Polygon","coordinates":[[[-17,15],[-5,15],[0,15],[10,15],[15,23],[25,22],[30,23],[32,31],[25,32],[10,37],[3,37],[0,36],[-5,36],[-13,28],[-17,22],[-17,15]]]}},{"type":"Feature","properties":{"name":"West Africa","iso_a3":"WAF"},"geometry":{"type":"Polygon","coordinates":[[[-17,15],[-17,5],[-8,5],[0,5],[10,5],[10,15],[0,15],[-5,15],[-12,15],[-17,15]]]}},{"type":"Feature","properties":{"name":"Central/East Africa","iso_a3":"CEA"},"geometry":{"type":"Polygon","coordinates":[[[10,5],[15,5],[25,5],[30,-2],[35,-5],[40,-10],[35,-15],[30,-15],[25,-15],[15,-5],[12,0],[10,5]]]}},{"type":"Feature","properties":{"name":"Southern Africa","iso_a3":"SAF"},"geometry":{"type":"Polygon","coordinates":[[[25,-15],[30,-15],[35,-15],[40,-15],[35,-22],[32,-28],[28,-33],[18,-35],[15,-30],[17,-22],[23,-18],[25,-15]]]}},{"type":"Feature","properties":{"name":"Middle East","iso_a3":"MEA"},"geometry":{"type":"Polygon","coordinates":[[[30,31],[35,36],[40,37],[44,37],[50,37],[55,25],[50,22],[45,13],[43,12],[38,10],[34,8],[33,15],[36,20],[35,25],[30,31]]]}},{"type":"Feature","properties":{"name":"India","iso_a3":"IND"},"geometry":{"type":"Polygon","coordinates":[[[68,8],[72,8],[77,8],[80,10],[80,15],[85,20],[88,22],[88,27],[85,28],[80,30],[78,35],[75,37],[73,35],[70,28],[68,22],[68,15],[68,8]]]}},{"type":"Feature","properties":{"name":"China","iso_a3":"CHN"},"geometry":{"type":"Polygon","coordinates":[[[75,37],[80,38],[85,42],[95,42],[105,42],[115,42],[122,45],[130,42],[135,42],[135,35],[122,30],[118,25],[110,20],[108,22],[102,22],[98,18],[100,25],[105,30],[100,35],[90,35],[82,30],[78,35],[75,37]]]}},{"type":"Feature","properties":{"name":"Japan","iso_a3":"JPN"},"geometry":{"type":"Polygon","coordinates":[[[130,31],[131,33],[132,34],[135,35],[140,36],[141,38],[140,42],[142,43],[145,44],[145,42],[143,40],[142,36],[140,35],[137,33],[134,33],[132,32],[130,31]]]}},{"type":"Feature","properties":{"name":"Southeast Asia","iso_a3":"SEA"},"geometry":{"type":"Polygon","coordinates":[[[98,10],[102,22],[108,22],[110,20],[118,25],[115,10],[110,5],[105,0],[100,-2],[98,2],[98,10]]]}},{"type":"Feature","properties":{"name":"Indonesia","iso_a3":"IDN"},"geometry":{"type":"MultiPolygon","coordinates":[[[[95,-6],[98,-2],[100,-2],[105,0],[108,-1],[106,-6],[100,-8],[95,-8],[95,-6]]],[[[110,-7],[112,-7],[116,-8],[118,-8],[115,-3],[110,-2],[110,-7]]],[[[120,-5],[125,-3],[130,-2],[135,-3],[140,-5],[140,-8],[135,-10],[127,-10],[120,-8],[120,-5]]]]}},{"type":"Feature","properties":{"name":"Australia","iso_a3":"AUS"},"geometry":{"type":"Polygon","coordinates":[[[114,-10],[120,-10],[125,-14],[130,-13],[136,-12],[142,-11],[145,-15],[150,-22],[153,-28],[151,-34],[140,-38],[135,-35],[130,-32],[125,-33],[118,-35],[114,-32],[114,-22],[120,-20],[122,-18],[119,-15],[115,-14],[114,-10]]]}},{"type":"Feature","properties":{"name":"New Zealand","iso_a3":"NZL"},"geometry":{"type":"MultiPolygon","coordinates":[[[[172,-34],[175,-37],[178,-38],[178,-41],[175,-42],[172,-40],[170,-38],[172,-34]]],[[[166,-44],[168,-44],[172,-45],[172,-47],[168,-47],[166,-46],[166,-44]]]]}}]}